*******************************************************************************
Ephemeris / WWW_USER Mon Mar 24 08:25:20 2025 Pasadena, USA      / Horizons    
*******************************************************************************
Target body name: (2018 TG6)                      {source: JPL#30}
Center body name: Earth (399)                     {source: DE441}
Center-site name: Mauna Kea
*******************************************************************************
Start time      : A.D. 2018-Oct-04 04:17:00.0000 UT      
Stop  time      : A.D. 2018-Oct-04 16:04:00.0000 UT      
Step-size       : 1 minutes
*******************************************************************************
Target pole/equ : undefined
Target radii    : undefined                                                    
Center geodetic : 204.5278, 19.8260847, 4.21024   {E-lon(deg),Lat(deg),Alt(km)}
Center cylindric: 204.5278, 6006.35451, 2151.0229 {E-lon(deg),Dxy(km),Dz(km)}
Center pole/equ : ITRF93                          {East-longitude positive}
Center radii    : 6378.137, 6378.137, 6356.752 km {Equator_a, b, pole_c}       
Target primary  : Sun
Vis. interferer : MOON (R_eq= 1737.400) km        {source: DE441}
Rel. light bend : Sun                             {source: DE441}
Rel. lght bnd GM: 1.3271E+11 km^3/s^2                                          
Small-body perts: Yes                             {source: SB441-N16}
Atmos refraction: NO (AIRLESS)
RA format       : HMS
Time format     : CAL 
Calendar mode   : Mixed Julian/Gregorian
RTS-only print  : NO       
EOP file        : eop.250321.p250617                                           
EOP coverage    : DATA-BASED 1962-JAN-20 TO 2025-MAR-21. PREDICTS-> 2025-JUN-16
Units conversion: 1 au= 149597870.700 km, c= 299792.458 km/s, 1 day= 86400.0 s 
Table cut-offs 1: Elevation (-90.0deg=NO ),Airmass (>38.000=NO), Daylight (YES)
Table cut-offs 2: Solar elongation (  0.0,180.0=NO ),Local Hour Angle( 0.0=NO )
Table cut-offs 3: RA/DEC angular rate (     0.0=NO )                           
*******************************************************************************
Initial IAU76/J2000 heliocentric ecliptic osculating elements (au, days, deg.):
  EPOCH=  2458431.5 ! 2018-Nov-09.00 (TDB)         Residual RMS= .2345         
   EC= .08078462401503236  QR= .9719826736009184   TP= 2458484.4320189627      
   OM= 45.37159736002829   W=  55.46172815883946   IN= 1.097814612439332       
  Equivalent ICRF heliocentric cartesian coordinates (au, au/d):
   X= 7.039692724255667E-01  Y= 6.572194580492579E-01  Z= 2.849862807208282E-01
  VX=-1.330010453008250E-02 VY= 1.042346427712734E-02 VZ= 4.885657766154543E-03
Asteroid physical parameters (km, seconds, rotational period in hours):        
   GM= n.a.                RAD= n.a.               ROTPER= n.a.                
   H= 27.25                G= .150                 B-V= n.a.                   
                           ALBEDO= n.a.            STYP= n.a.                  
*******************************************************************************
 Date__(UT)__HR:MN     R.A._________(ICRF)_________DEC
******************************************************
$$SOE
 2018-Oct-04 12:29  m  01 37 51.075654 -03 33 41.20212
 2018-Oct-04 12:30  m  01 37 50.995834 -03 33 41.39356
 2018-Oct-04 12:31  m  01 37 50.916084 -03 33 41.58483
 2018-Oct-04 12:32  m  01 37 50.836404 -03 33 41.77591
 2018-Oct-04 12:33  m  01 37 50.756795 -03 33 41.96680
 2018-Oct-04 12:34  m  01 37 50.677259 -03 33 42.15752
 2018-Oct-04 12:35  m  01 37 50.597796 -03 33 42.34805
 2018-Oct-04 12:36  m  01 37 50.518407 -03 33 42.53841
 2018-Oct-04 12:37  m  01 37 50.439092 -03 33 42.72858
 2018-Oct-04 12:38  m  01 37 50.359853 -03 33 42.91857
 2018-Oct-04 12:39  m  01 37 50.280691 -03 33 43.10837
 2018-Oct-04 12:40  m  01 37 50.201606 -03 33 43.29800
 2018-Oct-04 12:41  m  01 37 50.122599 -03 33 43.48745
 2018-Oct-04 12:42  m  01 37 50.043672 -03 33 43.67672
 2018-Oct-04 12:43  m  01 37 49.964824 -03 33 43.86580
 2018-Oct-04 12:44  m  01 37 49.886057 -03 33 44.05471
 2018-Oct-04 12:45  m  01 37 49.807372 -03 33 44.24344
 2018-Oct-04 12:46  m  01 37 49.728769 -03 33 44.43199
 2018-Oct-04 12:47  m  01 37 49.650250 -03 33 44.62037
 2018-Oct-04 12:48  m  01 37 49.571814 -03 33 44.80856
 2018-Oct-04 12:49  m  01 37 49.493464 -03 33 44.99658
 2018-Oct-04 12:50  m  01 37 49.415200 -03 33 45.18441
 2018-Oct-04 12:51  m  01 37 49.337022 -03 33 45.37208
 2018-Oct-04 12:52  m  01 37 49.258932 -03 33 45.55956
 2018-Oct-04 12:53  m  01 37 49.180930 -03 33 45.74687
 2018-Oct-04 12:54  m  01 37 49.103018 -03 33 45.93400
 2018-Oct-04 12:55  m  01 37 49.025195 -03 33 46.12096
 2018-Oct-04 12:56  m  01 37 48.947463 -03 33 46.30774
 2018-Oct-04 12:57  m  01 37 48.869824 -03 33 46.49435
 2018-Oct-04 12:58  m  01 37 48.792276 -03 33 46.68078
 2018-Oct-04 12:59  m  01 37 48.714822 -03 33 46.86704
 2018-Oct-04 13:00  m  01 37 48.637462 -03 33 47.05312
 2018-Oct-04 13:01  m  01 37 48.560198 -03 33 47.23903
 2018-Oct-04 13:02  m  01 37 48.483029 -03 33 47.42477
 2018-Oct-04 13:03  m  01 37 48.405956 -03 33 47.61033
 2018-Oct-04 13:04  m  01 37 48.328981 -03 33 47.79572
 2018-Oct-04 13:05  m  01 37 48.252105 -03 33 47.98094
 2018-Oct-04 13:06  m  01 37 48.175327 -03 33 48.16599
 2018-Oct-04 13:07  m  01 37 48.098650 -03 33 48.35086
 2018-Oct-04 13:08  m  01 37 48.022073 -03 33 48.53557
 2018-Oct-04 13:09  m  01 37 47.945598 -03 33 48.72010
 2018-Oct-04 13:10  m  01 37 47.869225 -03 33 48.90447
 2018-Oct-04 13:11  m  01 37 47.792955 -03 33 49.08866
 2018-Oct-04 13:12  m  01 37 47.716789 -03 33 49.27269
 2018-Oct-04 13:13  m  01 37 47.640728 -03 33 49.45654
 2018-Oct-04 13:14  m  01 37 47.564773 -03 33 49.64023
 2018-Oct-04 13:15  m  01 37 47.488923 -03 33 49.82375
 2018-Oct-04 13:16  m  01 37 47.413181 -03 33 50.00710
 2018-Oct-04 13:17  m  01 37 47.337547 -03 33 50.19029
 2018-Oct-04 13:18  m  01 37 47.262021 -03 33 50.37330
 2018-Oct-04 13:19  m  01 37 47.186605 -03 33 50.55616
 2018-Oct-04 13:20  m  01 37 47.111300 -03 33 50.73884
 2018-Oct-04 13:21  m  01 37 47.036105 -03 33 50.92136
 2018-Oct-04 13:22  m  01 37 46.961022 -03 33 51.10372
 2018-Oct-04 13:23  m  01 37 46.886052 -03 33 51.28590
 2018-Oct-04 13:24  m  01 37 46.811195 -03 33 51.46793
 2018-Oct-04 13:25  m  01 37 46.736452 -03 33 51.64979
 2018-Oct-04 13:26  m  01 37 46.661825 -03 33 51.83149
 2018-Oct-04 13:27  m  01 37 46.587313 -03 33 52.01303
 2018-Oct-04 13:28  m  01 37 46.512917 -03 33 52.19440
 2018-Oct-04 13:29  m  01 37 46.438639 -03 33 52.37561
 2018-Oct-04 13:30  m  01 37 46.364479 -03 33 52.55666
 2018-Oct-04 13:31  m  01 37 46.290437 -03 33 52.73755
 2018-Oct-04 13:32  m  01 37 46.216515 -03 33 52.91828
 2018-Oct-04 13:33  m  01 37 46.142713 -03 33 53.09884
 2018-Oct-04 13:34  m  01 37 46.069033 -03 33 53.27925
 2018-Oct-04 13:35  m  01 37 45.995474 -03 33 53.45950
 2018-Oct-04 13:36  m  01 37 45.922037 -03 33 53.63959
 2018-Oct-04 13:37  m  01 37 45.848724 -03 33 53.81952
 2018-Oct-04 13:38  m  01 37 45.775535 -03 33 53.99929
 2018-Oct-04 13:39  m  01 37 45.702471 -03 33 54.17891
 2018-Oct-04 13:40  m  01 37 45.629532 -03 33 54.35837
 2018-Oct-04 13:41  m  01 37 45.556719 -03 33 54.53767
 2018-Oct-04 13:42  m  01 37 45.484034 -03 33 54.71682
 2018-Oct-04 13:43  m  01 37 45.411476 -03 33 54.89581
 2018-Oct-04 13:44  m  01 37 45.339046 -03 33 55.07465
 2018-Oct-04 13:45  m  01 37 45.266746 -03 33 55.25333
 2018-Oct-04 13:46  m  01 37 45.194576 -03 33 55.43186
 2018-Oct-04 13:47  m  01 37 45.122536 -03 33 55.61024
 2018-Oct-04 13:48  m  01 37 45.050627 -03 33 55.78846
 2018-Oct-04 13:49  m  01 37 44.978851 -03 33 55.96653
 2018-Oct-04 13:50  m  01 37 44.907207 -03 33 56.14445
 2018-Oct-04 13:51  m  01 37 44.835697 -03 33 56.32222
 2018-Oct-04 13:52  m  01 37 44.764321 -03 33 56.49984
 2018-Oct-04 13:53  m  01 37 44.693080 -03 33 56.67731
 2018-Oct-04 13:54  m  01 37 44.621974 -03 33 56.85463
 2018-Oct-04 13:55  m  01 37 44.551005 -03 33 57.03179
 2018-Oct-04 13:56  m  01 37 44.480172 -03 33 57.20881
 2018-Oct-04 13:57  m  01 37 44.409478 -03 33 57.38569
 2018-Oct-04 13:58  m  01 37 44.338921 -03 33 57.56241
 2018-Oct-04 13:59  m  01 37 44.268504 -03 33 57.73899
 2018-Oct-04 14:00  m  01 37 44.198227 -03 33 57.91542
 2018-Oct-04 14:01  m  01 37 44.128089 -03 33 58.09171
 2018-Oct-04 14:02  m  01 37 44.058094 -03 33 58.26785
 2018-Oct-04 14:03  m  01 37 43.988239 -03 33 58.44384
 2018-Oct-04 14:04  m  01 37 43.918528 -03 33 58.61969
 2018-Oct-04 14:05  m  01 37 43.848959 -03 33 58.79540
 2018-Oct-04 14:06  m  01 37 43.779534 -03 33 58.97096
 2018-Oct-04 14:07  m  01 37 43.710254 -03 33 59.14639
 2018-Oct-04 14:08  m  01 37 43.641119 -03 33 59.32167
 2018-Oct-04 14:09  m  01 37 43.572130 -03 33 59.49681
 2018-Oct-04 14:10  m  01 37 43.503287 -03 33 59.67181
 2018-Oct-04 14:11  m  01 37 43.434591 -03 33 59.84666
 2018-Oct-04 14:12  m  01 37 43.366043 -03 34 00.02138
 2018-Oct-04 14:13  m  01 37 43.297644 -03 34 00.19596
 2018-Oct-04 14:14  m  01 37 43.229393 -03 34 00.37040
 2018-Oct-04 14:15  m  01 37 43.161292 -03 34 00.54471
 2018-Oct-04 14:16  m  01 37 43.093342 -03 34 00.71887
 2018-Oct-04 14:17  m  01 37 43.025543 -03 34 00.89290
 2018-Oct-04 14:18  m  01 37 42.957895 -03 34 01.06680
 2018-Oct-04 14:19  m  01 37 42.890399 -03 34 01.24055
 2018-Oct-04 14:20  m  01 37 42.823057 -03 34 01.41418
 2018-Oct-04 14:21  m  01 37 42.755868 -03 34 01.58767
 2018-Oct-04 14:22  m  01 37 42.688833 -03 34 01.76102
 2018-Oct-04 14:23  m  01 37 42.621953 -03 34 01.93424
 2018-Oct-04 14:24  m  01 37 42.555228 -03 34 02.10733
 2018-Oct-04 14:25  m  01 37 42.488659 -03 34 02.28029
 2018-Oct-04 14:26  m  01 37 42.422247 -03 34 02.45312
 2018-Oct-04 14:27  m  01 37 42.355992 -03 34 02.62581
 2018-Oct-04 14:28  m  01 37 42.289895 -03 34 02.79838
 2018-Oct-04 14:29  m  01 37 42.223957 -03 34 02.97082
 2018-Oct-04 14:30  m  01 37 42.158177 -03 34 03.14313
 2018-Oct-04 14:31  m  01 37 42.092557 -03 34 03.31531
